     2              NAVIGATION DATA                         RINEX VERSION / TYPE
CCRINEXN V1.6.0 UX  CDDIS               28-SEP-21 19:31     PGM / RUN BY / DATE 
IGS BROADCAST EPHEMERIS FILE                                COMMENT             
    0.8382D-08  0.1490D-07 -0.5960D-07 -0.5960D-07          ION ALPHA           
    0.8397D+05  0.1638D+05 -0.1311D+06 -0.6554D+05          ION BETA            
    0.279396772385D-08 0.444089209850D-14   319488     2177 DELTA-UTC: A0,A1,T,W
    18                                                      LEAP SECONDS        
                                                            END OF HEADER       
30 21  9 27  9 59 44.0-0.476949382573D-03-0.363797880709D-11 0.000000000000D+00
    0.340000000000D+02 0.351250000000D+02 0.489627537809D-08 0.471520666008D+00
    0.189058482647D-05 0.535669596866D-02 0.906735658646D-05 0.515364364052D+04
    0.122384000000D+06 0.558793544769D-07-0.253676099556D+01 0.126659870148D-06
    0.936743130288D+00 0.191468750000D+03-0.273459607413D+01-0.816569727693D-08
   -0.203937066226D-09 0.100000000000D+01 0.217700000000D+04 0.000000000000D+00
    0.200000000000D+01 0.000000000000D+00 0.372529029846D-08 0.340000000000D+02
    0.115218000000D+06 0.400000000000D+01 0.000000000000D+00 0.000000000000D+00
 1 21  9 27 10  0  0.0 0.555680599064D-03-0.109139364213D-10 0.000000000000D+00
    0.400000000000D+02-0.643437500000D+02 0.402481050666D-08 0.119255077917D+01
   -0.326521694660D-05 0.110616203165D-01 0.791065394878D-05 0.515367900467D+04
    0.122400000000D+06-0.134110450745D-06 0.593437659129D+00 0.169500708580D-06
    0.985702195641D+00 0.241656250000D+03 0.888962034368D+00-0.795425989828D-08
   -0.700029159024D-10 0.100000000000D+01 0.217700000000D+04 0.000000000000D+00
    0.200000000000D+01 0.000000000000D+00 0.512227416039D-08 0.400000000000D+02
    0.115218000000D+06 0.400000000000D+01 0.000000000000D+00 0.000000000000D+00
 3 21  9 27 10  0  0.0-0.304067507386D-03-0.136424205266D-10 0.000000000000D+00
    0.390000000000D+02-0.182500000000D+02 0.439911181209D-08 0.600297520458D-01
   -0.976026058197D-06 0.389561953489D-02 0.799074769020D-05 0.515376355362D+04
    0.122400000000D+06-0.353902578354D-07 0.162998787359D+01 0.800937414169D-07
    0.970444077108D+00 0.229062500000D+03 0.987919035867D+00-0.795961726429D-08
    0.230366738556D-09 0.100000000000D+01 0.217700000000D+04 0.000000000000D+00
    0.200000000000D+01 0.000000000000D+00 0.186264514923D-08 0.390000000000D+02
    0.115218000000D+06 0.400000000000D+01 0.000000000000D+00 0.000000000000D+00
 4 21  9 27 10  0  0.0-0.204152893275D-03 0.227373675443D-12 0.000000000000D+00
    0.184000000000D+03-0.156250000000D+02 0.466912305915D-08 0.297907679012D+01
   -0.864267349243D-06 0.140818790533D-02 0.712834298611D-05 0.515368692589D+04
    0.122400000000D+06-0.372529029846D-08 0.271114937697D+01 0.558793544769D-08
    0.961000510809D+00 0.242437500000D+03-0.307198005959D+01-0.798604693662D-08
   -0.145720355552D-09 0.100000000000D+01 0.217700000000D+04 0.000000000000D+00
    0.200000000000D+01 0.000000000000D+00-0.419095158577D-08 0.696000000000D+03
    0.115632000000D+06 0.400000000000D+01 0.000000000000D+00 0.000000000000D+00
 5 21  9 27 10  0  0.0-0.557736493647D-04-0.125055521494D-11 0.000000000000D+00
    0.720000000000D+02-0.296562500000D+02 0.462447834237D-08-0.247675724542D+01
   -0.151991844177D-05 0.609784200788D-02 0.758655369282D-05 0.515359135246D+04
    0.122400000000D+06 0.132247805595D-06 0.159147744608D+01 0.186264514923D-08
    0.957421455395D+00 0.231312500000D+03 0.998996981560D+00-0.796033157976D-08
    0.263225250102D-09 0.100000000000D+01 0.217700000000D+04 0.000000000000D+00
    0.200000000000D+01 0.000000000000D+00-0.111758708954D-07 0.720000000000D+02
    0.115218000000D+06 0.400000000000D+01 0.000000000000D+00 0.000000000000D+00
 6 21  9 27 10  0  0.0 0.826604664326D-04 0.773070496507D-11 0.000000000000D+00
    0.550000000000D+02-0.742187500000D+02 0.392980654936D-08 0.154206720216D+01
   -0.382773578167D-05 0.220627267845D-02 0.756233930588D-05 0.515358695221D+04
    0.122400000000D+06 0.353902578354D-07 0.585186963546D+00-0.335276126862D-07
    0.985128585463D+00 0.243968750000D+03-0.102011434301D+01-0.777210945384D-08
   -0.521450291926D-10 0.100000000000D+01 0.217700000000D+04 0.000000000000D+00
    0.200000000000D+01 0.000000000000D+00 0.372529029846D-08 0.550000000000D+02
    0.115218000000D+06 0.400000000000D+01 0.000000000000D+00 0.000000000000D+00
 7 21  9 27 10  0  0.0 0.252662226558D-03 0.670752342558D-11 0.000000000000D+00
    0.160000000000D+02 0.333750000000D+02 0.463305012799D-08 0.574116505068D+00
    0.186823308468D-05 0.152771568391D-01 0.916235148907D-05 0.515373580360D+04
    0.122400000000D+06-0.206753611565D-06-0.255204632290D+01 0.197440385819D-06
    0.951561200138D+00 0.200812500000D+03-0.230546861479D+01-0.813748181592D-08
   -0.307512809143D-09 0.100000000000D+01 0.217700000000D+04 0.000000000000D+00
    0.200000000000D+01 0.000000000000D+00-0.111758708954D-07 0.160000000000D+02
    0.115218000000D+06 0.400000000000D+01 0.000000000000D+00 0.000000000000D+00
 8 21  9 27 10  0  0.0-0.379909761250D-04-0.136424205266D-11 0.000000000000D+00
    0.630000000000D+02-0.103750000000D+02 0.455304679553D-08-0.275875914324D+01
   -0.439584255218D-06 0.652283779345D-02 0.400096178055D-05 0.515365682030D+04
    0.122400000000D+06-0.949949026108D-07-0.483018314120D+00-0.484287738800D-07
    0.966339342564D+00 0.308062500000D+03 0.541417320662D-01-0.810390898891D-08
   -0.464305054455D-11 0.100000000000D+01 0.217700000000D+04 0.000000000000D+00
    0.200000000000D+01 0.000000000000D+00 0.512227416039D-08 0.630000000000D+02
    0.115218000000D+06 0.400000000000D+01 0.000000000000D+00 0.000000000000D+00
 9 21  9 27 10  0  0.0-0.361454673111D-03-0.341060513165D-12 0.000000000000D+00
    0.890000000000D+02-0.172187500000D+02 0.480698594455D-08-0.242336631802D+01
   -0.899657607079D-06 0.219468167052D-02 0.697188079357D-05 0.515369705772D+04
    0.122400000000D+06 0.484287738800D-07 0.265934514954D+01-0.372529029846D-08
    0.953889364041D+00 0.243093750000D+03 0.181251937199D+01-0.803212028434D-08
   -0.141791620476D-09 0.100000000000D+01 0.217700000000D+04 0.000000000000D+00
    0.280000000000D+01 0.000000000000D+00 0.139698386192D-08 0.890000000000D+02
    0.115218000000D+06 0.400000000000D+01 0.000000000000D+00 0.000000000000D+00
12 21  9 27 10  0  0.0-0.103320926428D-03-0.545696821064D-11 0.000000000000D+00
    0.610000000000D+02 0.747812500000D+02 0.433696636634D-08-0.147549578078D+00
    0.379607081413D-05 0.824873277452D-02 0.652857124805D-05 0.515367753792D+04
    0.122400000000D+06-0.651925802231D-07-0.144011485687D+01 0.111758708954D-06
    0.971781342228D+00 0.265437500000D+03 0.123188828644D+01-0.814248202420D-08
    0.121076471893D-09 0.100000000000D+01 0.217700000000D+04 0.000000000000D+00
    0.200000000000D+01 0.000000000000D+00-0.125728547573D-07 0.610000000000D+02
    0.118003000000D+06 0.400000000000D+01 0.000000000000D+00 0.000000000000D+00
13 21  9 27 10  0  0.0 0.191373284906D-03 0.545696821064D-11 0.000000000000D+00
    0.810000000000D+02-0.147187500000D+02 0.436232456547D-08 0.288107053615D+01
   -0.763684511185D-06 0.548459857237D-02 0.755116343498D-05 0.515367826271D+04
    0.122400000000D+06 0.521540641785D-07 0.280988979199D+01-0.186264514923D-07
    0.968621635208D+00 0.237062500000D+03 0.966152936079D+00-0.777675250439D-08
   -0.104290058385D-09 0.100000000000D+01 0.217700000000D+04 0.000000000000D+00
    0.200000000000D+01 0.000000000000D+00-0.111758708954D-07 0.810000000000D+02
    0.115250000000D+06 0.400000000000D+01 0.000000000000D+00 0.000000000000D+00
14 21  9 27 10  0  0.0-0.730250030756D-05-0.784439180279D-11 0.000000000000D+00
    0.228000000000D+03 0.864687500000D+02 0.462733560424D-08-0.199501614363D+00
    0.449828803539D-05 0.112047232687D-02 0.612996518612D-05 0.515364811897D+04
    0.122400000000D+06 0.149011611938D-07-0.146920759711D+01-0.372529029846D-08
    0.955232366725D+00 0.257468750000D+03 0.312031547126D+01-0.819748431527D-08
    0.120004998690D-09 0.100000000000D+01 0.217700000000D+04 0.000000000000D+00
    0.200000000000D+01 0.000000000000D+00-0.791624188423D-08 0.228000000000D+03
    0.115218000000D+06 0.400000000000D+01 0.000000000000D+00 0.000000000000D+00
15 21  9 27 10  0  0.0-0.118115916848D-03 0.272848410532D-11 0.000000000000D+00
    0.780000000000D+02-0.194687500000D+02 0.527986278462D-08 0.252800937049D+01
   -0.118650496006D-05 0.137134549441D-01 0.674277544022D-05 0.515367817497D+04
    0.122400000000D+06 0.856816768646D-07 0.255705517008D+01-0.197440385819D-06
    0.929566822224D+00 0.231343750000D+03 0.103168221997D+01-0.815998275318D-08
   -0.328585115460D-10 0.100000000000D+01 0.217700000000D+04 0.000000000000D+00
    0.200000000000D+01 0.000000000000D+00-0.107102096081D-07 0.780000000000D+02
    0.115252000000D+06 0.400000000000D+01 0.000000000000D+00 0.000000000000D+00
16 21  9 27 10  0  0.0-0.397550873458D-03-0.636646291241D-11 0.000000000000D+00
    0.550000000000D+02 0.732812500000D+02 0.425089135240D-08-0.198020399860D+01
    0.350177288055D-05 0.122403376736D-01 0.542402267456D-05 0.515376403046D+04
    0.122400000000D+06 0.912696123123D-07-0.142141323838D+01-0.128522515297D-06
    0.971800405513D+00 0.277750000000D+03 0.680835321261D+00-0.784746973576D-08
    0.222866426138D-09 0.100000000000D+01 0.217700000000D+04 0.000000000000D+00
    0.200000000000D+01 0.000000000000D+00-0.102445483208D-07 0.550000000000D+02
    0.115218000000D+06 0.400000000000D+01 0.000000000000D+00 0.000000000000D+00
